STARLINK-1637
1 26133C 20057S   21325.15160362  .00001437  00000-0  96225-4 0  3254
2 26133  53.0510 122.5509 0001695  87.9642 180.9343 15.06405618    19
